STARLINK-5116           
1 54014U 22125BC  22294.83334491 -.00112922  00000+0 -80835-3 0  9995
2 54014  53.2192  13.0292 0002684  16.9514 355.7111 15.73270147  2878
STARLINK-5055           
1 54015U 22125BD  22294.58334491  .00079897  00000+0  56863-3 0  9993
2 54015  53.2185  14.2606 0002754  28.7007   9.0713 15.73183193  1307
FALCON 9 DEB            
1 54016U 22125BE  22294.71272218  .00265445  38747-4  65856-3 0  9999
2 54016  53.2338  12.2658 0010917 352.1302   7.9555 15.95343175  2826
FALCON 9 DEB            
1 54017U 22125BF  22294.64285615  .00334287  56165-4  76736-3 0  9991
2 54017  53.2308  12.5346 0009165 353.5335   6.5576 15.96753846  2813
FALCON 9 DEB            
1 54018U 22125BG  22294.69246299  .00351255  62248-4  72719-3 0  9992
2 54018  53.2257  12.1174 0011021 335.0954  24.9545 15.98561420  2826
FALCON 9 DEB            
1 54019U 22125BH  22294.50379534  .00328814  55501-4  70020-3 0  9994
2 54019  53.2239  13.0690 0008497 325.1022  34.9451 15.98119425  2796
CENTISPACE-1 S5         
1 54020U 22126A   22294.78682310  .00000559  00000+0  16018-3 0  9995
2 54020  54.9972 130.3614 0013168 327.5183  32.4987 14.57920033  2082
CENTISPACE-1 S6         
1 54021U 22126B   22294.78446673  .00000563  00000+0  16037-3 0  9992
2 54021  54.9973 130.3491 0015053 327.3469  32.6584 14.58165033  2073
CZ-11H R/B              
1 54022U 22126C   22294.26585117  .00021128  00000+0  36816-3 0  9990
2 54022  56.1520 129.6852 0338850 339.5286  19.2267 15.06397991  2065
OTB-3-GAZELLE           
1 54023U 22127A   22294.41702540 -.00000043  00000+0  00000+0 0  9996
2 54023  98.3148 293.4311 0012307 257.5921 102.3890 14.41644948  1971
ELECTRON KICK STAGE R/B 
1 54024U 22127B   22294.60584734  .00003620  00000+0  49270-3 0  9990
2 54024  98.2936 294.2564 0141343 338.2124  21.3088 14.72699203  2035
ELECTRON R/B            
1 54025U 22127C   22294.47412103  .00126284  54727-5  12271-2 0  9999
2 54025  98.3337 295.2274 0343040 171.5211 189.2045 15.17727795  2084
GALAXY 33               
1 54026U 22128A   22294.78320696 -.00000146  00000+0  00000+0 0  9992
2 54026   0.8243 166.5282 0762525 129.8126 252.1076  1.06252558   368
GALAXY 34               
1 54027U 22128B   22294.07079223 -.00000105  00000+0  00000+0 0  9997
2 54027   6.5916 190.5035 3642556 182.7113   1.8529  1.60832320   363
FALCON 9 R/B            
1 54028U 22128C   22294.70008732  .00002788  00000+0  84754-3 0  9995
2 54028  26.8562 185.4051 5936057 191.6637 144.0078  4.11997255   526
ASO-S                   
1 54029U 22129A   22294.79287238  .00000001  00000+0  11507-4 0  9999
2 54029  98.2684 300.0877 0014194 224.0455 135.9620 14.50857839  1855
CZ-2D R/B               
1 54030U 22129B   22294.48329293  .00000327  00000+0  86613-4 0  9996
2 54030  98.1948 299.6832 0019626  77.8347 282.5046 14.54805332  1825
COSMOS 2559 [GLONASS-K] 
1 54031U 22130A   22293.69266686 -.00000068  00000+0  00000+0 0  9991
2 54031  64.7808   1.2992 0001943 327.3231 162.0911  2.12838435   229
FREGAT R/B              
1 54032U 22130B   22286.02640266 -.00000089  00000+0  00000+0 0  9994
2 54032  64.7735   1.5414 0026318 173.8175 185.0931  2.11041190    45
ANGOSAT 2               
1 54033U 22131A   22294.80000000  .00000084  00000+0  00000+0 0  9991
2 54033   0.0210 278.6100 0001924 123.5410 320.7040  0.99176300   108
BLOCK DM-SL R/B         
1 54034U 22131B   22293.87693990 -.00000118  00000+0  00000+0 0  9993
2 54034   0.1540 285.1011 0081368 172.6344 263.2207  0.97749008    83
HJ-2E                   
1 54035U 22132A   22295.00404745  .00008599  00000+0  35980-3 0  9999
2 54035  97.3954 300.4317 0011810 237.7293 178.2979 15.23754617  1373
2022-132B               
1 54036U 22132B   22294.78152992  .00109468  00000+0  33505-2 0  9995
2 54036  97.3564 300.2845 0033603 294.3880 240.3371 15.32838262  1343
2022-132C               
1 54037U 22132C   22294.78688875  .00011741  00000+0  11411-2 0  9998
2 54037  97.6523 299.8843 0189495 142.7399 218.7055 14.80144466  1307
2022-132D               
1 54038U 22132D   22294.79069985  .00026894  00000+0  13240-2 0  9992
2 54038  97.5901 300.2746 0099565 202.5653 157.1134 15.13618340  1333
CZ-2C R/B               
1 54039U 22132E   22294.73300690  .00003706  00000+0  19280-3 0  9996
2 54039  97.2523 299.7163 0047556 180.1823 295.9557 15.15650736  1325
2022-132F               
1 54040U 22132F   22294.76193917  .00027015  00000+0  15072-2 0  9996
2 54040  97.1610 299.7552 0123308 193.3948 166.3761 15.07171220  1324
2022-132G               
1 54041U 22132G   22294.80338028  .00013641  00000+0  11818-2 0  9990
2 54041  97.1924 299.5919 0151145 139.3912 221.8463 14.88731800  1318
2022-133A               
1 54042U 22133A   22294.85830183  .00022340  00000+0  87842-3 0  9993
2 54042  34.9997 242.2568 0008920 330.8988  56.7527 15.24735487  1082
2022-133B               
1 54043U 22133B   22294.62400676 -.00058325  00000+0 -23642-2 0  9990
2 54043  34.9930 243.7335 0008048 348.3444 191.5681 15.24010633  1044
2022-133C               
1 54044U 22133C   22294.35290226  .00023883  00000+0  93004-3 0  9998
2 54044  35.0044 245.4161 0009197 331.7826 164.6549 15.25044660  1003
2022-133D               
1 54045U 22133D   22294.35213560  .00017460  00000+0  67842-3 0  9990
2 54045  34.9979 245.4156 0009256 343.4393 152.8468 15.25165817  1005
2022-133E               
1 54046U 22133E   22294.62551284  .00008846  00000+0  35347-3 0  9992
2 54046  34.9974 243.7335 0008098 325.2496 215.6570 15.24352802  1043
2022-134A               
1 54048U 22134A   22295.00000000  .00000072  00000+0  00000+0 0  9990
2 54048  25.5150 300.6070 7954833 181.1820 357.7680  1.30438953    87
2022-134B               
1 54049U 22134B   22294.18542388  .00038311  00000+0  23127+0 0  9991
2 54049  26.8390 299.8615 8046933 181.7700 352.8881  1.34287912    78
COSMOS 2560             
1 54050U 22135A   22294.98375154  .00156440  00000+0  86154-3 0  9994
2 54050  96.3472  22.4906 0012073 223.1518 203.0053 15.79165132   963
2022-137A               
1 54109U 22137A   22294.88156479 -.00000090  00000+0  00000+0 0  9999
2 54109  97.0771  14.9581 0009151 268.7815 202.6022 15.51169244    05
2022-137B               
1 54110U 22137B   22294.88156736 -.00000090  00000+0  00000+0 0  9997
2 54110  97.0759  14.9542 0009054 256.6346 214.7888 15.51293505    10
2022-137C               
1 54111U 22137C   22294.92423253  .01751838  20317-5  14830-2 0  9995
2 54111  97.0792  15.0221 0157300  72.3430 289.4946 15.92793145    24
2022-137D               
1 54112U 22137D   22294.95729243 -.00000089  00000+0  00000+0 0  9994
2 54112  97.0788  15.0344 0006970 264.0185 269.8569 15.50729887    17
